H1 CPF  1  DLR 2021 06 25 10  6762 technosat            
H2  1704205 6203    42829 2021 06 25 00 00 00 2021 07 02 00 00 00    60 1 1  0 0 0
H9
10 0 59391  28800.000000  0      -3149089.179      -1461261.692       6026824.482
10 0 59391  28860.000000  0      -3543660.826      -1495371.946       5795510.917
10 0 59391  28920.000000  0      -3923501.900      -1519769.722       5539509.731
10 0 59391  28980.000000  0      -4286918.520      -1534487.127       5259907.827
10 0 59391  29040.000000  0      -4632286.692      -1539611.833       4957893.427
10 0 59391  29100.000000  0      -4958059.875      -1535286.128       4634751.054
10 0 59391  29160.000000  0      -5262776.201      -1521705.644       4291856.040
10 0 59391  29220.000000  0      -5545065.307      -1499117.773       3930668.646
10 0 59391  29280.000000  0      -5803654.773      -1467819.808       3552727.805
10 0 59391  29340.000000  0      -6037376.132      -1428156.808       3159644.509
10 0 59391  29400.000000  0      -6245170.456      -1380519.228       2753094.895
10 0 59391  29460.000000  0      -6426093.536      -1325340.294       2334812.958
10 0 59391  29520.000000  0      -6579320.488      -1263093.123       1906582.846
10 0 59391  29580.000000  0      -6704149.672      -1194287.621       1470230.913
10 0 59391  29640.000000  0      -6800005.994      -1119467.175       1027617.634
10 0 59391  29700.000000  0      -6866443.635      -1039205.162        580629.363
10 0 59391  29760.000000  0      -6903148.113       -954101.290        131169.948
10 0 59391  29820.000000  0      -6909937.699       -864777.846       -318847.696
10 0 59391  29880.000000  0      -6886764.192       -771875.808       -767510.065
10 0 59391  29940.000000  0      -6833712.980       -676050.859      -1212911.521
10 0 59391  30000.000000  0      -6751002.424       -577969.353      -1653162.604
10 0 59391  30060.000000  0      -6638982.676       -478304.285      -2086398.198
10 0 59391  30120.000000  0      -6498133.916       -377731.281      -2510785.605
10 0 59391  30180.000000  0      -6329063.952       -276924.557      -2924532.504
10 0 59391  30240.000000  0      -6132505.105       -176552.904      -3325894.645
10 0 59391  30300.000000  0      -5909310.517        -77275.737      -3713183.174
10 0 59391  30360.000000  0      -5660449.975         20260.740      -4084771.641
10 0 59391  30420.000000  0      -5387005.213        115427.246      -4439102.693
10 0 59391  30480.000000  0      -5090164.755        207615.018      -4774694.374
10 0 59391  30540.000000  0      -4771218.345        296239.280      -5090146.053
10 0 59391  30600.000000  0      -4431550.952        380742.512      -5384143.978
10 0 59391  30660.000000  0      -4072636.391        460597.495      -5655466.367
10 0 59391  30720.000000  0      -3696030.643        535310.176      -5902988.079
10 0 59391  30780.000000  0      -3303364.855        604422.317      -6125684.820
10 0 59391  30840.000000  0      -2896338.174        667513.944      -6322636.868
10 0 59391  30900.000000  0      -2476710.407        724205.541      -6493032.483
10 0 59391  30960.000000  0      -2046294.365        774160.034      -6636170.918
10 0 59391  31020.000000  0      -1606948.056        817084.528      -6751464.867
10 0 59391  31080.000000  0      -1160566.804        852731.811      -6838442.468
10 0 59391  31140.000000  0       -709075.278        880901.574      -6896748.908
10 0 59391  31200.000000  0       -254419.459        901441.399      -6926147.585
10 0 59391  31260.000000  0        201441.387        914247.480      -6926520.915
10 0 59391  31320.000000  0        656542.839        919265.074      -6897870.836
10 0 59391  31380.000000  0       1108923.606        916488.716      -6840318.835
10 0 59391  31440.000000  0       1556633.760        905962.186      -6754105.387
10 0 59391  31500.000000  0       1997742.820        887778.191      -6639589.006
10 0 59391  31560.000000  0       2430347.837        862077.804      -6497244.971
10 0 59391  31620.000000  0       2852581.459        829049.677      -6327663.503
10 0 59391  31680.000000  0       3262619.758        788928.955      -6131547.508
10 0 59391  31740.000000  0       3658689.908        741995.933      -5909710.018
10 0 59391  31800.000000  0       4039077.804        688574.474      -5663071.194
10 0 59391  31860.000000  0       4402135.419        629030.201      -5392654.877
10 0 59391  31920.000000  0       4746288.014        563768.468      -5099584.781
10 0 59391  31980.000000  0       5070041.140        493232.099      -4785080.173
10 0 59391  32040.000000  0       5371987.259        417898.877      -4450451.152
10 0 59391  32100.000000  0       5650812.078        338278.839      -4097093.539
10 0 59391  32160.000000  0       5905300.514        254911.362      -3726483.375
10 0 59391  32220.000000  0       6134342.268        168362.091      -3340171.078
10 0 59391  32280.000000  0       6336937.051         79219.676      -2939775.252
10 0 59391  32340.000000  0       6512199.381        -11907.645      -2526976.091
10 0 59391  32400.000000  0       6659362.847       -104395.627      -2103508.427
10 0 59391  32460.000000  0       6777783.822       -197607.673      -1671154.486
10 0 59391  32520.000000  0       6866944.631       -290898.597      -1231736.415
10 0 59391  32580.000000  0       6926456.159       -383618.451       -787108.579
10 0 59391  32640.000000  0       6956059.870       -475116.412       -339149.690
10 0 59391  32700.000000  0       6955629.279       -564744.722        110245.231
10 0 59391  32760.000000  0       6925170.743       -651862.636        559173.092
10 0 59391  32820.000000  0       6864823.556       -735840.327       1005730.965
10 0 59391  32880.000000  0       6774859.525       -816062.766       1448024.297
10 0 59391  32940.000000  0       6655681.916       -891933.525       1884175.269
10 0 59391  33000.000000  0       6507823.617       -962878.494       2312331.069
10 0 59391  33060.000000  0       6331944.660      -1028349.491       2730671.977
10 0 59391  33120.000000  0       6128829.180      -1087827.692       3137419.264
10 0 59391  33180.000000  0       5899381.856      -1140826.899       3530842.928
10 0 59391  33240.000000  0       5644623.774      -1186896.703       3909269.227
10 0 59391  33300.000000  0       5365687.689      -1225625.468       4271087.998
10 0 59391  33360.000000  0       5063812.719      -1256643.001       4614759.587
10 0 59391  33420.000000  0       4740338.641      -1279623.026       4938821.464
10 0 59391  33480.000000  0       4396699.711      -1294285.389       5241894.485
10 0 59391  33540.000000  0       4034418.107      -1300397.992       5522688.796
10 0 59391  33600.000000  0       3655096.949      -1297778.521       5780009.331
10 0 59391  33660.000000  0       3260412.949      -1286295.896       6012760.841
10 0 59391  33720.000000  0       2852108.819      -1265871.409       6219952.458
10 0 59391  33780.000000  0       2431985.459      -1236479.582       6400701.843
10 0 59391  33840.000000  0       2001893.866      -1198148.782       6554238.945
10 0 59391  33900.000000  0       1563726.800      -1150961.501       6679909.221
10 0 59391  33960.000000  0       1119410.286      -1095054.315       6777176.355
10 0 59391  34020.000000  0        670895.041      -1030617.550       6845624.440
10 0 59391  34080.000000  0        220147.848       -957894.671       6884959.704
10 0 59391  34140.000000  0       -230857.155       -877181.368       6895011.714
10 0 59391  34200.000000  0       -680147.127       -788824.380       6875734.105
10 0 59391  34260.000000  0      -1125759.230       -693220.016       6827204.872
10 0 59391  34320.000000  0      -1565749.273       -590812.361       6749626.073
10 0 59391  34380.000000  0      -1998200.232       -482091.231       6643323.070
10 0 59391  34440.000000  0      -2421230.680       -367589.875       6508743.322
10 0 59391  34500.000000  0      -2833003.111       -247882.374       6346454.660
10 0 59391  34560.000000  0      -3231732.088       -123580.822       6157143.044
10 0 59391  34620.000000  0      -3615692.183          4667.716       5941609.842
10 0 59391  34680.000000  0      -3983225.724        136184.512       5700768.583
10 0 59391  34740.000000  0      -4332750.188        270262.678       5435641.165
10 0 59391  34800.000000  0      -4662765.294        406170.836       5147353.651
10 0 59391  34860.000000  0      -4971859.764        543156.978       4837131.574
10 0 59391  34920.000000  0      -5258717.709        680452.517       4506294.759
10 0 59391  34980.000000  0      -5522124.512        817276.453       4156251.660
10 0 59391  35040.000000  0      -5760972.232        952839.642       3788493.354
10 0 59391  35100.000000  0      -5974264.586       1086349.170       3404587.172
10 0 59391  35160.000000  0      -6161121.413       1217012.812       3006169.900
10 0 59391  35220.000000  0      -6320782.560       1344043.492       2594940.624
10 0 59391  35280.000000  0      -6452611.192       1466663.745       2172653.309
10 0 59391  35340.000000  0      -6556096.543       1584110.200       1741109.108
10 0 59391  35400.000000  0      -6630856.069       1695638.009       1302148.381
10 0 59391  35460.000000  0      -6676636.906       1800525.222        857642.502
10 0 59391  35520.000000  0      -6693316.662       1898077.042        409485.536
10 0 59391  35580.000000  0      -6680903.547       1987629.921        -40414.159
10 0 59391  35640.000000  0      -6639535.895       2068555.511       -490142.387
10 0 59391  35700.000000  0      -6569480.997       2140264.442       -937787.563
10 0 59391  35760.000000  0      -6471133.351       2202209.897      -1381449.078
10 0 59391  35820.000000  0      -6345012.327       2253890.991      -1819245.627
10 0 59391  35880.000000  0      -6191759.189       2294855.905      -2249323.451
10 0 59391  35940.000000  0      -6012133.499       2324704.760      -2669864.390
99
